[Satellite]
VERSION=1.1
NAME=AEROCUBE 5B
NICKNAME=AEROCUBE 5B
TLE1=1 39466U 13072E   20157.74330941  .00003027  00000-0  23881-3 0  9994
TLE2=2 39466 120.4903 156.9029 0229262 240.8784 116.9143 14.86008760 39835
STATUS=0
